STARLINK-4720           
1 53800U 22111AD  26186.17200219  .00061758  00000+0  67657-3 0  9998
2 53800  53.2074  32.1704 0002125 160.7343 199.3753 15.62703604212466
STARLINK-4715           
1 53801U 22111AE  26186.25005787  .00865298  00000+0  27896-1 0  9991
2 53801  53.1587  94.7674 0001110  64.1047 311.6328 15.29380120  5741
STARLINK-4726           
1 53802U 22111AF  26186.25005787  .00154542  00000+0  48893-2 0  9996
2 53802  53.1593  94.5768 0001152  83.0033  31.1443 15.31701892  5706
STARLINK-4727           
1 53803U 22111AG  26186.11695909 -.00004690  00000+0 -27696-3 0  9992
2 53803  53.1613  81.8139 0001474 105.7230 254.3924 15.08816319211751
STARLINK-4729           
1 53804U 22111AH  26185.76299747  .00060877  00000+0  37564-2 0  9994
2 53804  53.1605  93.1360 0001202  66.1671 293.9447 15.09360214211560
STARLINK-4763           
1 53805U 22111AJ  26186.25005787  .01196767  00000+0  52799-1 0  9994
2 53805  53.1592  81.0928 0001530  59.0002   6.7687 15.18345477  5690
STARLINK-4768           
1 53806U 22111AK  26186.09852537 -.00001603  00000+0 -82650-4 0  9997
2 53806  53.1623  81.6913 0001377 114.8563 245.2572 15.08822580211750
STARLINK-4738           
1 53819U 22114B   26186.25005787  .01477335  00000+0  51693-1 0  9997
2 53819  53.1607 135.3438 0001273  72.5480 190.4509 15.26108693  5695
STARLINK-4758           
1 53820U 22114C   26185.57278005  .00000787  00000+0  67544-4 0  9995
2 53820  53.1603 139.4318 0001317  85.2090 274.9052 15.08833412210471
STARLINK-4748           
1 53823U 22114F   26186.25005787  .00073173  00000+0  40704-2 0  9995
2 53823  53.1591  91.0984 0001661  91.0907 167.7187 15.13017361  5042
STARLINK-4757           
1 53824U 22114G   26185.89283680  .00000720  00000+0  63342-4 0  9998
2 53824  53.1596 137.1777 0001493  79.0950 281.0210 15.08836600210445
STARLINK-4751           
1 53825U 22114H   26185.89660240  .00002147  00000+0  15292-3 0  9995
2 53825  53.1603 137.8972 0001315  92.8082 267.3060 15.08840258210524
STARLINK-4756           
1 53826U 22114J   26185.87819567  .00001501  00000+0  11238-3 0  9991
2 53826  53.1620 137.7863 0001301  79.5508 280.5630 15.08839068210529
STARLINK-4764           
1 53827U 22114K   26185.88923386  .00000677  00000+0  60627-4 0  9998
2 53827  53.1596 137.8499 0001282  90.3401 269.7737 15.08838887210524
STARLINK-4760           
1 53828U 22114L   26185.60953599  .00000274  00000+0  35311-4 0  9993
2 53828  53.1597 138.9526 0001259  86.8749 273.2386 15.08840361210483
STARLINK-4759           
1 53829U 22114M   26185.88554950  .00000390  00000+0  42627-4 0  9999
2 53829  53.1613 137.8275 0001396  86.1108 274.0043 15.08838522210526
STARLINK-4761           
1 53830U 22114N   26185.60218173  .00001324  00000+0  10128-3 0  9993
2 53830  53.1609 138.9086 0001335  89.9066 270.2078 15.08835778210483
STARLINK-4649           
1 53831U 22114P   26185.28571889 -.00001240  00000+0 -59832-4 0  9999
2 53831  53.1596 140.4854 0001229  96.7199 263.3932 15.08827098210438
STARLINK-4747           
1 53832U 22114Q   26185.59480234  .00000817  00000+0  69417-4 0  9994
2 53832  53.1606 138.8627 0001346  86.1668 273.9478 15.08836062210482
STARLINK-4771           
1 53833U 22114R   26185.60680805  .00001455  00000+0  10951-3 0  9990
2 53833  53.1596 138.9355 0001368 108.9958 251.1182 15.08840483210481
STARLINK-4737           
1 53834U 22114S   26185.85239031  .00001407  00000+0  10646-3 0  9997
2 53834  53.1617 137.6266 0001160  80.0272 280.0850 15.08837559210520
STARLINK-4783           
1 53835U 22114T   26185.86344357  .00001432  00000+0  10807-3 0  9994
2 53835  53.1600 137.6937 0001306  87.4688 272.6453 15.08839282210523
STARLINK-4778           
1 53836U 22114U   26186.25005787 -.00448700  00000+0 -78716-2 0  9997
2 53836  53.2168 114.5788 0000952  88.0415  32.5924 15.51569281  5786
STARLINK-4776           
1 53837U 22114V   26185.85608478 -.00000239  00000+0  30950-5 0  9990
2 53837  53.1595 137.6478 0001386  84.8761 275.2389 15.08830067210528
STARLINK-4773           
1 53838U 22114W   26185.56633011  .00001313  00000+0  10058-3 0  9998
2 53838  53.1614 129.4121 0001280  90.1687 269.9451 15.08837922210612
STARLINK-4784           
1 53839U 22114X   26185.83865247  .00002011  00000+0  14440-3 0  9992
2 53839  53.1594 128.2639 0001327  84.9465 275.1678 15.08843697210658
STARLINK-4766           
1 53840U 22114Y   26185.12568010  .00001047  00000+0  45507-4 0  9991
2 53840  53.1625 128.8299 0001309  89.4697 270.6455 15.31702783210581
STARLINK-4750           
1 53841U 22114Z   26185.56264388  .00001798  00000+0  13101-3 0  9998
2 53841  53.1610 129.3876 0001314  92.7022 267.4120 15.08840073210614
STARLINK-4754           
1 53842U 22114AA  26186.21030423  .00001198  00000+0  93365-4 0  9998
2 53842  53.1602 126.3174 0001438 101.7037 258.4115 15.08837168210714
STARLINK-4769           
1 53843U 22114AB  26186.22136096  .00001246  00000+0  96398-4 0  9996
2 53843  53.1598 126.3847 0001601  94.3453 265.7722 15.08837872210714
