OBJECT_NAME,OBJECT_ID,EPOCH,MEAN_MOTION,ECCENTRICITY,INCLINATION,RA_OF_ASC_NODE,ARG_OF_PERICENTER,MEAN_ANOMALY,EPHEMERIS_TYPE,CLASSIFICATION_TYPE,NORAD_CAT_ID,ELEMENT_SET_NO,REV_AT_EPOCH,BSTAR,MEAN_MOTION_DOT,MEAN_MOTION_DDOT
STARLINK-4720,2022-111AD,2026-07-05T04:07:40.989216,15.62703604,.0002125,53.2074,32.1704,160.7343,199.3753,0,U,53800,999,21246,.67656995E-3,.61758E-3,0
STARLINK-4715,2022-111AE,2026-07-05T06:00:04.999968,15.29380120,.00011103,53.1587,94.7674,64.1047,311.6328,0,U,53801,999,574,.2789593E-1,.865298E-2,0
STARLINK-4726,2022-111AF,2026-07-05T06:00:04.999968,15.31701892,.00011528,53.1593,94.5768,83.0033,31.1443,0,U,53802,999,570,.48892767E-2,.154542E-2,0
STARLINK-4727,2022-111AG,2026-07-05T02:48:25.265376,15.08816319,.00014742,53.1613,81.8139,105.7230,254.3924,0,U,53803,999,21175,-.276957E-3,-.469E-4,0
STARLINK-4729,2022-111AH,2026-07-04T18:18:42.981408,15.09360214,.00012027,53.1605,93.1360,66.1671,293.9447,0,U,53804,999,21156,.37563923E-2,.60877E-3,0
STARLINK-4763,2022-111AJ,2026-07-05T06:00:04.999968,15.18345477,.00015308,53.1592,81.0928,59.0002,6.7687,0,U,53805,999,569,.52798778E-1,.1196767E-1,0
STARLINK-4768,2022-111AK,2026-07-05T02:21:52.591968,15.08822580,.00013774,53.1623,81.6913,114.8563,245.2572,0,U,53806,999,21175,-.82650421E-4,-.1603E-4,0
STARLINK-4738,2022-114B,2026-07-05T06:00:04.999968,15.26108693,.00012733,53.1607,135.3438,72.5480,190.4509,0,U,53819,999,569,.51692953E-1,.1477335E-1,0
STARLINK-4758,2022-114C,2026-07-04T13:44:48.196320,15.08833412,.00013177,53.1603,139.4318,85.2090,274.9052,0,U,53820,999,21047,.67543708E-4,.787E-5,0
STARLINK-4748,2022-114F,2026-07-05T06:00:04.999968,15.13017361,.00016618,53.1591,91.0984,91.0907,167.7187,0,U,53823,999,504,.4070437E-2,.73173E-3,0
STARLINK-4757,2022-114G,2026-07-04T21:25:41.099520,15.08836600,.00014937,53.1596,137.1777,79.0950,281.0210,0,U,53824,999,21044,.63342078E-4,.72E-5,0
STARLINK-4751,2022-114H,2026-07-04T21:31:06.447360,15.08840258,.00013159,53.1603,137.8972,92.8082,267.3060,0,U,53825,999,21052,.15292197E-3,.2147E-4,0
STARLINK-4756,2022-114J,2026-07-04T21:04:36.105888,15.08839068,.00013013,53.1620,137.7863,79.5508,280.5630,0,U,53826,999,21052,.11237896E-3,.1501E-4,0
STARLINK-4764,2022-114K,2026-07-04T21:20:29.805504,15.08838887,.00012829,53.1596,137.8499,90.3401,269.7737,0,U,53827,999,21052,.60626894E-4,.677E-5,0
STARLINK-4760,2022-114L,2026-07-04T14:37:43.909536,15.08840361,.00012591,53.1597,138.9526,86.8749,273.2386,0,U,53828,999,21048,.35311134E-4,.274E-5,0
STARLINK-4759,2022-114M,2026-07-04T21:15:11.476800,15.08838522,.00013962,53.1613,137.8275,86.1108,274.0043,0,U,53829,999,21052,.42627445E-4,.39E-5,0
STARLINK-4761,2022-114N,2026-07-04T14:27:08.501472,15.08835778,.00013353,53.1609,138.9086,89.9066,270.2078,0,U,53830,999,21048,.10127996E-3,.1324E-4,0
STARLINK-4649,2022-114P,2026-07-04T06:51:26.112096,15.08827098,.00012294,53.1596,140.4854,96.7199,263.3932,0,U,53831,999,21043,-.59832241E-4,-.124E-4,0
STARLINK-4747,2022-114Q,2026-07-04T14:16:30.922176,15.08836062,.00013464,53.1606,138.8627,86.1668,273.9478,0,U,53832,999,21048,.69416751E-4,.817E-5,0
STARLINK-4771,2022-114R,2026-07-04T14:33:48.215520,15.08840483,.00013685,53.1596,138.9355,108.9958,251.1182,0,U,53833,999,21048,.10951494E-3,.1455E-4,0
STARLINK-4737,2022-114S,2026-07-04T20:27:26.522784,15.08837559,.00011606,53.1617,137.6266,80.0272,280.0850,0,U,53834,999,21052,.10646006E-3,.1407E-4,0
STARLINK-4783,2022-114T,2026-07-04T20:43:21.524448,15.08839282,.00013061,53.1600,137.6937,87.4688,272.6453,0,U,53835,999,21052,.10807044E-3,.1432E-4,0
STARLINK-4778,2022-114U,2026-07-05T06:00:04.999968,15.51569281,.00009525,53.2168,114.5788,88.0415,32.5924,0,U,53836,999,578,-.78715588E-2,-.4487E-2,0
STARLINK-4776,2022-114V,2026-07-04T20:32:45.724992,15.08830067,.00013863,53.1595,137.6478,84.8761,275.2389,0,U,53837,999,21052,.3094975E-5,-.239E-5,0
STARLINK-4773,2022-114W,2026-07-04T13:35:30.921504,15.08837922,.00012807,53.1614,129.4121,90.1687,269.9451,0,U,53838,999,21061,.10057962E-3,.1313E-4,0
STARLINK-4784,2022-114X,2026-07-04T20:07:39.573408,15.08843697,.00013274,53.1594,128.2639,84.9465,275.1678,0,U,53839,999,21065,.14440155E-3,.2011E-4,0
STARLINK-4766,2022-114Y,2026-07-04T03:00:58.760640,15.31702783,.00013098,53.1625,128.8299,89.4697,270.6455,0,U,53840,999,21058,.45506769E-4,.1047E-4,0
STARLINK-4750,2022-114Z,2026-07-04T13:30:12.431232,15.08840073,.0001314,53.1610,129.3876,92.7022,267.4120,0,U,53841,999,21061,.13101063E-3,.1798E-4,0
STARLINK-4754,2022-114AA,2026-07-05T05:02:50.285472,15.08837168,.00014384,53.1602,126.3174,101.7037,258.4115,0,U,53842,999,21071,.93364643E-4,.1198E-4,0
STARLINK-4769,2022-114AB,2026-07-05T05:18:45.586944,15.08837872,.00016019,53.1598,126.3847,94.3453,265.7722,0,U,53843,999,21071,.963979E-4,.1246E-4,0
